{
  "type": "FeatureCollection",
  "features": [
    {
      "type": "Feature",
      "properties": {
        "norad_id": 41581,
        "name": "INTELSAT 31 (IS-31)",
        "group": "intelsat",
        "lat": 0.01785219803991299,
        "lon": -13.257468613486799,
        "alt_km": 35793.12278111035,
        "timestamp": "2025-12-18T23:35:48.715264+00:00",
        "meta_object_name": "INTELSAT 31 (IS-31)",
        "meta_object_id": "2016-035A",
        "meta_epoch": "2025-12-18T14:33:19.434816",
        "meta_mean_motion": 1.00270872,
        "meta_eccentricity": 0.00020076,
        "meta_inclination": 0.0235,
        "meta_ra_of_asc_node": 272.5701,
        "meta_arg_of_pericenter": 290.5326,
        "meta_mean_anomaly": 7.6454,
        "meta_ephemeris_type": 0,
        "meta_classification_type": "U",
        "meta_norad_cat_id": 41581,
        "meta_element_set_no": 999,
        "meta_rev_at_epoch": 3487,
        "meta_bstar": 0,
        "meta_mean_motion_dot": -1.26e-06,
        "meta_mean_motion_ddot": 0,
        "tle_line1": "1 41581U 16035A   25352.60647494 -.00000126  00000+0  00000+0 0  9999",
        "tle_line2": "2 41581   0.0235 272.5701 0002007 290.5326   7.6454  1.00270872 34876"
      },
      "geometry": {
        "type": "Point",
        "coordinates": [
          -13.257468613486799,
          0.01785219803991299
        ]
      }
    },
    {
      "type": "Feature",
      "properties": {
        "norad_id": 41747,
        "name": "INTELSAT 36 (IS-36)",
        "group": "intelsat",
        "lat": 0.020998500167818426,
        "lon": 150.2609484029884,
        "alt_km": 35791.518889654886,
        "timestamp": "2025-12-18T23:35:48.715276+00:00",
        "meta_object_name": "INTELSAT 36 (IS-36)",
        "meta_object_id": "2016-053A",
        "meta_epoch": "2025-12-18T12:16:18.352128",
        "meta_mean_motion": 1.00271295,
        "meta_eccentricity": 0.00012688,
        "meta_inclination": 0.0133,
        "meta_ra_of_asc_node": 13.8529,
        "meta_arg_of_pericenter": 319.7519,
        "meta_mean_anomaly": 6.3257,
        "meta_ephemeris_type": 0,
        "meta_classification_type": "U",
        "meta_norad_cat_id": 41747,
        "meta_element_set_no": 999,
        "meta_rev_at_epoch": 3413,
        "meta_bstar": 0,
        "meta_mean_motion_dot": 1e-08,
        "meta_mean_motion_ddot": 0,
        "tle_line1": "1 41747U 16053A   25352.51132352  .00000001  00000+0  00000+0 0  9996",
        "tle_line2": "2 41747   0.0133  13.8529 0001268 319.7519   6.3257  1.00271295 34133"
      },
      "geometry": {
        "type": "Point",
        "coordinates": [
          150.2609484029884,
          0.020998500167818426
        ]
      }
    },
    {
      "type": "Feature",
      "properties": {
        "norad_id": 41945,
        "name": "INTELSAT 32E (IS-32E)",
        "group": "intelsat",
        "lat": 0.0014178969205528513,
        "lon": 38.601262797197414,
        "alt_km": 35783.78349449035,
        "timestamp": "2025-12-18T23:35:48.715288+00:00",
        "meta_object_name": "INTELSAT 32E (IS-32E)",
        "meta_object_id": "2017-007B",
        "meta_epoch": "2025-12-18T11:22:37.699680",
        "meta_mean_motion": 1.00270135,
        "meta_eccentricity": 6.748e-05,
        "meta_inclination": 0.0305,
        "meta_ra_of_asc_node": 71.9297,
        "meta_arg_of_pericenter": 319.1225,
        "meta_mean_anomaly": 183.7647,
        "meta_ephemeris_type": 0,
        "meta_classification_type": "U",
        "meta_norad_cat_id": 41945,
        "meta_element_set_no": 999,
        "meta_rev_at_epoch": 3241,
        "meta_bstar": 0,
        "meta_mean_motion_dot": -2.44e-06,
        "meta_mean_motion_ddot": 0,
        "tle_line1": "1 41945U 17007B   25352.47404745 -.00000244  00000+0  00000+0 0  9999",
        "tle_line2": "2 41945   0.0305  71.9297 0000674 319.1225 183.7647  1.00270135 32413"
      },
      "geometry": {
        "type": "Point",
        "coordinates": [
          38.601262797197414,
          0.0014178969205528513
        ]
      }
    },
    {
      "type": "Feature",
      "properties": {
        "norad_id": 42818,
        "name": "INTELSAT 35E (IS-35E)",
        "group": "intelsat",
        "lat": 0.0333457367364583,
        "lon": 47.29515625631855,
        "alt_km": 35792.30469972263,
        "timestamp": "2025-12-18T23:35:48.715299+00:00",
        "meta_object_name": "INTELSAT 35E (IS-35E)",
        "meta_object_id": "2017-041A",
        "meta_epoch": "2025-12-18T11:25:07.461120",
        "meta_mean_motion": 1.00269757,
        "meta_eccentricity": 0.00018445,
        "meta_inclination": 0.0267,
        "meta_ra_of_asc_node": 16.5281,
        "meta_arg_of_pericenter": 254.92,
        "meta_mean_anomaly": 312.6753,
        "meta_ephemeris_type": 0,
        "meta_classification_type": "U",
        "meta_norad_cat_id": 42818,
        "meta_element_set_no": 999,
        "meta_rev_at_epoch": 3100,
        "meta_bstar": 0,
        "meta_mean_motion_dot": 0,
        "meta_mean_motion_ddot": 0,
        "tle_line1": "1 42818U 17041A   25352.47578080  .00000000  00000+0  00000+0 0  9990",
        "tle_line2": "2 42818   0.0267  16.5281 0001844 254.9200 312.6753  1.00269757 31000"
      },
      "geometry": {
        "type": "Point",
        "coordinates": [
          47.29515625631855,
          0.0333457367364583
        ]
      }
    },
    {
      "type": "Feature",
      "properties": {
        "norad_id": 42950,
        "name": "INTELSAT 37E (IS-37E)",
        "group": "intelsat",
        "lat": 0.0469128416447895,
        "lon": 63.771195218633856,
        "alt_km": 35798.88398925184,
        "timestamp": "2025-12-18T23:35:48.715311+00:00",
        "meta_object_name": "INTELSAT 37E (IS-37E)",
        "meta_object_id": "2017-059A",
        "meta_epoch": "2025-12-18T09:47:08.087136",
        "meta_mean_motion": 1.00269601,
        "meta_eccentricity": 0.00029612,
        "meta_inclination": 0.0263,
        "meta_ra_of_asc_node": 7.0136,
        "meta_arg_of_pericenter": 250.7085,
        "meta_mean_anomaly": 318.3201,
        "meta_ephemeris_type": 0,
        "meta_classification_type": "U",
        "meta_norad_cat_id": 42950,
        "meta_element_set_no": 999,
        "meta_rev_at_epoch": 3025,
        "meta_bstar": 0,
        "meta_mean_motion_dot": 0,
        "meta_mean_motion_ddot": 0,
        "tle_line1": "1 42950U 17059A   25352.40773249  .00000000  00000+0  00000+0 0  9993",
        "tle_line2": "2 42950   0.0263   7.0136 0002961 250.7085 318.3201  1.00269601 30258"
      },
      "geometry": {
        "type": "Point",
        "coordinates": [
          63.771195218633856,
          0.0469128416447895
        ]
      }
    },
    {
      "type": "Feature",
      "properties": {
        "norad_id": 43632,
        "name": "AZERSPACE 2 (IS-38)",
        "group": "intelsat",
        "lat": 0.034286668849135886,
        "lon": 126.88471371759424,
        "alt_km": 35790.10906322524,
        "timestamp": "2025-12-18T23:35:48.715323+00:00",
        "meta_object_name": "AZERSPACE 2 (IS-38)",
        "meta_object_id": "2018-074A",
        "meta_epoch": "2025-12-18T11:47:50.284608",
        "meta_mean_motion": 1.00271975,
        "meta_eccentricity": 0.00011657,
        "meta_inclination": 0.0182,
        "meta_ra_of_asc_node": 1.1401,
        "meta_arg_of_pericenter": 272.9163,
        "meta_mean_anomaly": 35.3682,
        "meta_ephemeris_type": 0,
        "meta_classification_type": "U",
        "meta_norad_cat_id": 43632,
        "meta_element_set_no": 999,
        "meta_rev_at_epoch": 2663,
        "meta_bstar": 0,
        "meta_mean_motion_dot": 1.61e-06,
        "meta_mean_motion_ddot": 0,
        "tle_line1": "1 43632U 18074A   25352.49155422  .00000161  00000+0  00000+0 0  9993",
        "tle_line2": "2 43632   0.0182   1.1401 0001165 272.9163  35.3682  1.00271975 26637"
      },
      "geometry": {
        "type": "Point",
        "coordinates": [
          126.88471371759424,
          0.034286668849135886
        ]
      }
    },
    {
      "type": "Feature",
      "properties": {
        "norad_id": 43633,
        "name": "HORIZONS-3E",
        "group": "intelsat",
        "lat": -0.01539159140362529,
        "lon": -109.25316247375848,
        "alt_km": 35785.10169306386,
        "timestamp": "2025-12-18T23:35:48.715335+00:00",
        "meta_object_name": "HORIZONS-3E",
        "meta_object_id": "2018-074B",
        "meta_epoch": "2025-12-18T10:40:25.482432",
        "meta_mean_motion": 1.00268833,
        "meta_eccentricity": 8.318e-05,
        "meta_inclination": 0.0515,
        "meta_ra_of_asc_node": 182.9983,
        "meta_arg_of_pericenter": 127.2074,
        "meta_mean_anomaly": 106.1886,
        "meta_ephemeris_type": 0,
        "meta_classification_type": "U",
        "meta_norad_cat_id": 43633,
        "meta_element_set_no": 999,
        "meta_rev_at_epoch": 2652,
        "meta_bstar": 0,
        "meta_mean_motion_dot": -6e-08,
        "meta_mean_motion_ddot": 0,
        "tle_line1": "1 43633U 18074B   25352.44473938 -.00000006  00000+0  00000+0 0  9993",
        "tle_line2": "2 43633   0.0515 182.9983 0000831 127.2074 106.1886  1.00268833 26523"
      },
      "geometry": {
        "type": "Point",
        "coordinates": [
          -109.25316247375848,
          -0.01539159140362529
        ]
      }
    }
  ]
}